[{"OBJECT_NAME":"YUNHAI-2 01F","OBJECT_ID":"2018-112G","EPOCH":"2026-03-09T22:32:39.167808","MEAN_MOTION":14.28981897,"ECCENTRICITY":0.00070201,"INCLINATION":50.0111,"RA_OF_ASC_NODE":288.9308,"ARG_OF_PERICENTER":341.2274,"MEAN_ANOMALY":18.8381,"EPHEMERIS_TYPE":0,"CLASSIFICATION_TYPE":"U","NORAD_CAT_ID":43915,"ELEMENT_SET_NO":999,"REV_AT_EPOCH":37411,"BSTAR":2.0666219e-5,"MEAN_MOTION_DOT":-1.09e-6,"MEAN_MOTION_DDOT":0},{"OBJECT_NAME":"CZ-4C DEB","OBJECT_ID":"2013-065D","EPOCH":"2026-03-09T12:25:28.000416","MEAN_MOTION":14.29886736,"ECCENTRICITY":0.01257208,"INCLINATION":100.5559,"RA_OF_ASC_NODE":285.5252,"ARG_OF_PERICENTER":319.0273,"MEAN_ANOMALY":40.1507,"EPHEMERIS_TYPE":0,"CLASSIFICATION_TYPE":"U","NORAD_CAT_ID":43627,"ELEMENT_SET_NO":999,"REV_AT_EPOCH":38356,"BSTAR":0.0053485111,"MEAN_MOTION_DOT":0.00014972,"MEAN_MOTION_DDOT":0}]
